NORAD_CAT_ID,OBJECT_NAME,OBJECT_TYPE,EPOCH,MEAN_MOTION,ECCENTRICITY,INCLINATION,RA_OF_ASC_NODE,ARG_OF_PERICENTER,MEAN_ANOMALY,BSTAR,MEAN_MOTION_DOT,MEAN_MOTION_DDOT,TLE_LINE0,TLE_LINE1,TLE_LINE2,SEMIMAJOR_AXIS,PERIOD,APOGEE,PERIGEE,DECAYED
56492.0,STARLINK-5846,PAYLOAD,2024-01-15 03:06:55,14.98331677,0.0002386,69.9996,282.5763,267.5078,92.5808,5.8702e-05,6.08e-06,0.0,0 STARLINK-5846,1 56492U 23064AW  24015.12980986  .00000608  00000-0  58702-4 0  9996,2 56492  69.9996 282.5763 0002386 267.5078  92.5808 14.98331677 38713,6950.188,96.107,573.711,570.394,0.0
56492.0,STARLINK-5846,PAYLOAD,2024-01-15 19:08:16,14.98324115,0.0002403,70.0008,280.8966,265.1354,94.9531,-3.9841e-05,-5.68e-06,0.0,0 STARLINK-5846,1 56492U 23064AW  24015.79741747 -.00000568  00000-0 -39841-4 0  9999,2 56492  70.0008 280.8966 0002403 265.1354  94.9531 14.98324115 39176,6950.211,96.107,573.746,570.406,0.0
56492.0,STARLINK-5846,PAYLOAD,2024-01-15 20:44:24,14.98323672,0.0002424,70.0007,280.7282,264.0158,96.0725,-4.6048e-05,-6.42e-06,0.0,0 STARLINK-5846,1 56492U 23064AW  24015.86417805 -.00000642  00000-0 -46048-4 0  9992,2 56492  70.0007 280.7282 0002424 264.0158  96.0725 14.98323672 38824,6950.212,96.107,573.762,570.393,0.0
56492.0,STARLINK-5846,PAYLOAD,2024-01-16 01:32:49,14.98326737,0.0002557,69.9992,280.2211,267.01,93.0767,-4.9631e-05,-6.85e-06,0.0,0 STARLINK-5846,1 56492U 23064AW  24016.06445628 -.00000685  00000-0 -49631-4 0  9997,2 56492  69.9992 280.2211 0002557 267.0100  93.0767 14.98326737 38859,6950.203,96.107,573.845,570.291,0.0
56492.0,STARLINK-5846,PAYLOAD,2024-01-16 19:10:17,14.98331062,0.0002736,69.9988,278.3685,267.618,92.4666,-1.6254e-05,-2.87e-06,0.0,0 STARLINK-5846,1 56492U 23064AW  24016.79881359 -.00000287  00000-0 -16254-4 0  9995,2 56492  69.9988 278.3685 0002736 267.6180  92.4666 14.98331062 39321,6950.19,96.107,573.956,570.153,0.0
56492.0,STARLINK-5846,PAYLOAD,2024-01-16 22:22:33,14.98328209,0.0002749,69.9991,278.0319,268.0976,91.9868,-1.2873e-05,-2.47e-06,0.0,0 STARLINK-5846,1 56492U 23064AW  24016.93233519 -.00000247  00000-0 -12873-4 0  9999,2 56492  69.9991 278.0319 0002749 268.0976  91.9868 14.98328209 38986,6950.198,96.107,573.974,570.153,0.0
56492.0,STARLINK-5846,PAYLOAD,2024-01-17 03:10:58,14.98324299,0.0002883,69.9989,277.5275,266.8334,93.2495,-8.2139e-05,-1.073e-05,0.0,0 STARLINK-5846,1 56492U 23064AW  24017.13261998 -.00001073  00000-0 -82139-4 0  9994,2 56492  69.9989 277.5275 0002883 266.8334  93.2495 14.98324299 39371,6950.211,96.107,574.079,570.072,0.0
56492.0,STARLINK-5846,PAYLOAD,2024-01-17 22:24:34,14.98327856,0.0003048,69.999,275.5063,276.2954,83.7858,9.6226e-05,1.055e-05,0.0,0 STARLINK-5846,1 56492U 23064AW  24017.93373494  .00001055  00000-0  96226-4 0  9997,2 56492  69.9990 275.5063 0003048 276.2954  83.7858 14.98327856 39136,6950.2,96.107,574.183,569.946,0.0
56492.0,STARLINK-5846,PAYLOAD,2024-01-18 03:12:57,14.98338231,0.0002953,69.9989,275.0028,270.739,89.343,0.00019432,2.227e-05,0.0,0 STARLINK-5846,1 56492U 23064AW  24018.13400433  .00002227  00000-0  19432-3 0  9999,2 56492  69.9989 275.0028 0002953 270.7390  89.3430 14.98338231 39527,6950.167,96.106,574.085,569.98,0.0
56492.0,STARLINK-5846,PAYLOAD,2024-01-18 19:14:19,14.98331407,0.0002559,69.9997,273.3199,264.1183,95.9684,3.2341e-05,2.93e-06,0.0,0 STARLINK-5846,1 56492U 23064AW  24018.80161158  .00000293  00000-0  32341-4 0  9997,2 56492  69.9997 273.3199 0002559 264.1183  95.9684 14.98331407 39628,6950.189,96.107,573.832,570.275,0.0
56492.0,STARLINK-5846,PAYLOAD,2024-01-18 22:26:35,14.98333001,0.0002645,70.0004,272.9834,272.2124,87.8732,5.2301e-05,5.31e-06,0.0,0 STARLINK-5846,1 56492U 23064AW  24018.93512998  .00000531  00000-0  52301-4 0  9996,2 56492  70.0004 272.9834 0002645 272.2124  87.8732 14.98333001 39280,6950.184,96.107,573.887,570.21,0.0
56492.0,STARLINK-5846,PAYLOAD,2024-01-19 03:14:59,14.98333131,0.0002662,70.0005,272.4786,272.9422,87.1433,6.0429e-05,6.28e-06,0.0,0 STARLINK-5846,1 56492U 23064AW  24019.13540923  .00000628  00000-0  60429-4 0  9995,2 56492  70.0005 272.4786 0002662 272.9422  87.1433 14.98333131 39318,6950.183,96.107,573.898,570.198,0.0
56492.0,STARLINK-5846,PAYLOAD,2024-01-19 19:16:20,14.98334831,0.0002219,70.0003,270.7954,258.5935,101.4975,-4.7776e-05,-6.63e-06,0.0,0 STARLINK-5846,1 56492U 23064AW  24019.80300975 -.00000663  00000-0 -47776-4 0  9991,2 56492  70.0003 270.7954 0002219 258.5935 101.4975 14.98334831 39770,6950.178,96.107,573.585,570.501,0.0
56492.0,STARLINK-5846,PAYLOAD,2024-01-19 22:28:36,14.98332315,0.0002301,70.0004,270.4588,259.1803,100.9097,-4.0723e-05,-5.79e-06,0.0,0 STARLINK-5846,1 56492U 23064AW  24019.93653060 -.00000579  00000-0 -40723-4 0  9992,2 56492  70.0004 270.4588 0002301 259.1803 100.9097 14.98332315 39431,6950.186,96.107,573.65,570.451,0.0
56492.0,STARLINK-5846,PAYLOAD,2024-01-20 01:40:52,14.98333463,0.0002252,70.0002,270.1221,257.9044,102.1862,-6.0526e-05,-8.15e-06,0.0,0 STARLINK-5846,1 56492U 23064AW  24020.07005007 -.00000815  00000-0 -60526-4 0  9997,2 56492  70.0002 270.1221 0002252 257.9044 102.1862 14.98333463 39459,6950.182,96.107,573.612,570.482,0.0
56492.0,STARLINK-5846,PAYLOAD,2024-01-20 19:18:21,14.98328794,0.0002488,70.0001,268.2704,261.807,98.2807,-0.00010003,-1.286e-05,0.0,0 STARLINK-5846,1 56492U 23064AW  24020.80441329 -.00001286  00000-0 -10003-3 0  9996,2 56492  70.0001 268.2704 0002488 261.8070  98.2807 14.98328794 39923,6950.197,96.107,573.791,570.332,0.0
56492.0,STARLINK-5846,PAYLOAD,2024-01-20 22:30:37,14.9832658,0.0002416,70.0001,267.9335,259.3013,100.7874,-0.00010756,-1.376e-05,0.0,0 STARLINK-5846,1 56492U 23064AW  24020.93793497 -.00001376  00000-0 -10756-3 0  9991,2 56492  70.0001 267.9335 0002416 259.3013 100.7874 14.98326580 39585,6950.203,96.107,573.748,570.389,0.0
56492.0,STARLINK-5846,PAYLOAD,2024-01-21 01:42:53,14.98327403,0.0002492,70.0002,267.5969,260.5723,99.5154,-0.00011815,-1.502e-05,0.0,0 STARLINK-5846,1 56492U 23064AW  24021.07145490 -.00001502  00000-0 -11815-3 0  9999,2 56492  70.0002 267.5969 0002492 260.5723  99.5154 14.98327403 39605,6950.201,96.107,573.798,570.334,0.0
56492.0,STARLINK-5846,PAYLOAD,2024-01-21 19:20:21,14.98331851,0.0002549,69.9994,265.7442,259.613,100.4742,1.9734e-05,1.43e-06,0.0,0 STARLINK-5846,1 56492U 23064AW  24021.80580841  .00000143  00000-0  19734-4 0  9990,2 56492  69.9994 265.7442 0002549 259.6130 100.4742 14.98331851 40072,6950.187,96.107,573.824,570.281,0.0
56492.0,STARLINK-5846,PAYLOAD,2024-01-21 22:32:37,14.98331799,0.0002543,69.9996,265.4077,259.6379,100.4494,2.0144e-05,1.47e-06,0.0,0 STARLINK-5846,1 56492U 23064AW  24021.93932831  .00000147  00000-0  20144-4 0  9995,2 56492  69.9996 265.4077 0002543 259.6379 100.4494 14.98331799 39730,6950.187,96.107,573.82,570.285,0.0
56492.0,STARLINK-5846,PAYLOAD,2024-01-22 01:44:54,14.98332156,0.0002605,69.9993,265.071,262.5456,97.5407,1.8969e-05,1.33e-06,0.0,0 STARLINK-5846,1 56492U 23064AW  24022.07284809  .00000133  00000-0  18969-4 0  9993,2 56492  69.9993 265.0710 0002605 262.5456  97.5407 14.98332156 39755,6950.186,96.107,573.862,570.241,0.0
56492.0,STARLINK-5846,PAYLOAD,2024-01-22 19:22:23,14.98327271,0.000268,69.9993,263.2193,262.4415,97.644,3.5422e-05,3.3e-06,0.0,0 STARLINK-5846,1 56492U 23064AW  24022.80721105  .00000330  00000-0  35422-4 0  9991,2 56492  69.9993 263.2193 0002680 262.4415  97.6440 14.98327271 40221,6950.201,96.107,573.929,570.204,0.0
56492.0,STARLINK-5846,PAYLOAD,2024-01-22 22:34:39,14.98327288,0.0002679,69.9993,262.8827,262.4373,97.6482,3.4047e-05,3.13e-06,0.0,0 STARLINK-5846,1 56492U 23064AW  24022.94073120  .00000313  00000-0  34047-4 0  9996,2 56492  69.9993 262.8827 0002679 262.4373  97.6482 14.98327288 39885,6950.201,96.107,573.928,570.204,0.0
56492.0,STARLINK-5846,PAYLOAD,2024-01-23 01:46:55,14.98329698,0.0002648,69.9994,262.5462,262.3469,97.7389,6.0285e-05,6.26e-06,0.0,0 STARLINK-5846,1 56492U 23064AW  24023.07424898  .00000626  00000-0  60285-4 0  9993,2 56492  69.9994 262.5462 0002648 262.3469  97.7389 14.98329698 39906,6950.194,96.107,573.899,570.218,0.0
56492.0,STARLINK-5846,PAYLOAD,2024-01-23 16:12:07,14.983352,0.000264,69.9993,261.0316,266.3245,93.7612,1.7091e-05,1.11e-06,0.0,0 STARLINK-5846,1 56492U 23064AW  24023.67508625  .00000111  00000-0  17091-4 0  9996,2 56492  69.9993 261.0316 0002640 266.3245  93.7612 14.98335200 40357,6950.177,96.107,573.877,570.207,0.0
56492.0,STARLINK-5846,PAYLOAD,2024-01-23 22:36:39,14.98335313,0.0002627,69.9993,260.3582,265.4793,94.6066,1.9202e-05,1.36e-06,0.0,0 STARLINK-5846,1 56492U 23064AW  24023.94212505  .00000136  00000-0  19202-4 0  9998,2 56492  69.9993 260.3582 0002627 265.4793  94.6066 14.98335313 40030,6950.176,96.107,573.867,570.216,0.0
56492.0,STARLINK-5846,PAYLOAD,2024-01-24 01:48:55,14.98336847,0.0002617,69.9994,260.0219,265.5338,94.5522,3.533e-05,3.29e-06,0.0,0 STARLINK-5846,1 56492U 23064AW  24024.07564309  .00000329  00000-0  35330-4 0  9999,2 56492  69.9994 260.0219 0002617 265.5338  94.5522 14.98336847 40051,6950.172,96.107,573.856,570.218,0.0
56492.0,STARLINK-5846,PAYLOAD,2024-01-24 19:26:24,14.98328399,0.0002498,69.9997,258.171,255.5687,104.5195,-2.2007e-05,-3.55e-06,0.0,0 STARLINK-5846,1 56492U 23064AW  24024.81000885 -.00000355  00000-0 -22007-4 0  9993,2 56492  69.9997 258.1710 0002498 255.5687 104.5195 14.98328399 40524,6950.198,96.107,573.799,570.327,0.0
56492.0,STARLINK-5846,PAYLOAD,2024-01-24 22:38:41,14.98326498,0.0002539,69.9997,257.8343,257.3726,102.7149,-4.7359e-05,-6.58e-06,0.0,0 STARLINK-5846,1 56492U 23064AW  24024.94353091 -.00000658  00000-0 -47359-4 0  9990,2 56492  69.9997 257.8343 0002539 257.3726 102.7149 14.98326498 40181,6950.204,96.107,573.833,570.304,0.0
56492.0,STARLINK-5846,PAYLOAD,2024-01-25 01:50:57,14.98326814,0.0002532,69.9997,257.4976,259.6789,100.4085,-4.3248e-05,-6.09e-06,0.0,0 STARLINK-5846,1 56492U 23064AW  24025.07705091 -.00000609  00000-0 -43248-4 0  9995,2 56492  69.9997 257.4976 0002532 259.6789 100.4085 14.98326814 40205,6950.203,96.107,573.828,570.308,0.0
